{
  "norad_id": 68510,
  "name": "STARLINK-37260",
  "history": [
    {
      "epoch": "2026-04-07T05:58:37.072416Z",
      "apogee_km": 302.8456901717227,
      "perigee_km": 297.9743579723645,
      "latitude_deg": 9.744331083876424e-06,
      "longitude_deg": 81.09148688576394,
      "height_km": 299.8605710679947,
      "semi_major_axis_km": 6678.547024072043,
      "eccentricity": 0.0003647,
      "inclination_deg": 53.1609,
      "raan_deg": 6.2746,
      "arg_perigee_deg": 52.9157,
      "mean_anomaly_deg": 307.2203,
      "mean_motion_rev_day": 15.90668862
    }
  ]
}