{"fetched_at":"2026-04-08T17:04:03Z","count":12288,"tles":[{"name":"STARLINK-37260","line1":"1 68510U 26068C   26097.24904020 -.00661503  14401-3 -20743-2 0  9991","line2":"2 68510  53.1609   6.2746 0003647  52.9157 307.2203 15.90668862  1188","category":"Starlink"}]}